NORAD_CAT_ID,OBJECT_NAME,OBJECT_TYPE,EPOCH,MEAN_MOTION,ECCENTRICITY,INCLINATION,RA_OF_ASC_NODE,ARG_OF_PERICENTER,MEAN_ANOMALY,BSTAR,MEAN_MOTION_DOT,MEAN_MOTION_DDOT,TLE_LINE0,TLE_LINE1,TLE_LINE2,SEMIMAJOR_AXIS,PERIOD,APOGEE,PERIGEE,DECAYED
52840.0,STARLINK-4049,PAYLOAD,2022-09-18 14:00:01,15.08841425,0.0001921999999999,53.2185,326.8724,45.7595,351.2587,0.00094251,0.00014744,0.0,0 STARLINK-4049,1 52840U 22062L   22261.58335648  .00014744  00000-0  94251-3 0  9990,2 52840  53.2185 326.8724 0001922  45.7595 351.2587 15.08841425 14831,6917.876,95.437,541.071,538.411,0.0
52840.0,STARLINK-4049,PAYLOAD,2022-09-19 00:00:00,15.08824873,0.0001715,53.2181,324.9975,46.4135,95.0469,0.0019913,0.00031533,0.0,0 STARLINK-4049,1 52840U 22062L   22262.00001157  .00031533  00000-0  19913-2 0  9999,2 52840  53.2181 324.9975 0001715  46.4135  95.0469 15.08824873  1300,6917.927,95.439,540.9780000000002,538.605,0.0
52840.0,STARLINK-4049,PAYLOAD,2022-09-19 06:00:02,15.08854927,0.0001781,53.2178,323.8734,48.7964,11.4169,-0.0039509,-0.00062646,0.0,0 STARLINK-4049,1 52840U 22062L   22262.25002315 -.00062646  00000-0 -39509-2 0  9997,2 52840  53.2178 323.8734 0001781  48.7964  11.4169 15.08854927 14930,6917.835,95.437,540.932,538.4680000000002,0.0
52840.0,STARLINK-4049,PAYLOAD,2022-09-19 14:00:01,15.08800861,0.000187,53.2187,322.3835,40.5445,31.2077,0.0031565,0.00050252,0.0,0 STARLINK-4049,1 52840U 22062L   22262.58334491  .00050252  00000-0  31565-2 0  9998,2 52840  53.2187 322.3835 0001870  40.5445  31.2077 15.08800861  1302,6918.0,95.44,541.159,538.571,0.0
52840.0,STARLINK-4049,PAYLOAD,2022-09-19 22:00:00,15.08829068,0.0001738,53.2189,320.8856,43.2195,40.1034,0.00037688,5.713e-05,0.0,0 STARLINK-4049,1 52840U 22062L   22262.91667824  .00005713  00000-0  37688-3 0  9999,2 52840  53.2189 320.8856 0001738  43.2195  40.1034 15.08829068  1307,6917.9140000000025,95.438,540.981,538.576,0.0
52840.0,STARLINK-4049,PAYLOAD,2022-09-20 06:00:00,15.08856146,0.0001781,53.219,319.3893,45.5293,49.37600000000001,-0.00050349,-8.296e-05,0.0,0 STARLINK-4049,1 52840U 22062L   22263.25001157 -.00008296  00000-0 -50349-3 0  9998,2 52840  53.2190 319.3893 0001781  45.5293  49.3760 15.08856146 15089,6917.831,95.437,540.928,538.464,0.0
52840.0,STARLINK-4049,PAYLOAD,2022-09-20 14:00:01,15.08838498,0.0001928,53.219,317.8946,38.9977,67.5194,0.00055828,8.608e-05,0.0,0 STARLINK-4049,1 52840U 22062L   22263.58334491  .00008608  00000-0  55828-3 0  9996,2 52840  53.2190 317.8946 0001928  38.9977  67.5194 15.08838498  1302,6917.885,95.438,541.0840000000002,538.4159999999998,0.0
52840.0,STARLINK-4049,PAYLOAD,2022-09-20 22:00:01,15.08823304,0.0001721999999999,53.2192,316.3966,40.5284,77.6548,0.00082504,0.00012861,0.0,0 STARLINK-4049,1 52840U 22062L   22263.91668981  .00012861  00000-0  82504-3 0  9994,2 52840  53.2192 316.3966 0001722  40.5284  77.6548 15.08823304  1307,6917.931,95.439,540.988,538.605,0.0
52840.0,STARLINK-4049,PAYLOAD,2022-09-21 08:00:01,15.08851433,0.0001841,53.2192,314.5272,41.4472,181.1513,-0.0010394,-0.00016797,0.0,0 STARLINK-4049,1 52840U 22062L   22264.33334491 -.00016797  00000-0 -10394-2 0  9998,2 52840  53.2192 314.5272 0001841  41.4472 181.1513 15.08851433 15254,6917.845,95.437,540.984,538.437,0.0
52840.0,STARLINK-4049,PAYLOAD,2022-09-21 22:00:00,15.08815693,0.0001838,53.2192,311.9079,43.9422,108.9632,0.0012772,0.00020084,0.0,0 STARLINK-4049,1 52840U 22062L   22264.91667824  .00020084  00000-0  12772-2 0  9995,2 52840  53.2192 311.9079 0001838  43.9422 108.9632 15.08815693  1306,6917.955,95.439,541.091,538.548,0.0
52840.0,STARLINK-4049,PAYLOAD,2022-09-22 14:00:01,15.08812498,0.0002052,53.2189,308.9171,40.6868,135.3961,0.0032033,0.00051024,0.0,0 STARLINK-4049,1 52840U 22062L   22265.58334491  .00051024  00000-0  32033-2 0  9990,2 52840  53.2189 308.9171 0002052  40.6868 135.3961 15.08812498 15447,6917.964,95.439,541.249,538.41,0.0
52840.0,STARLINK-4049,PAYLOAD,2022-09-22 22:00:00,15.08832684,0.0001876999999999,53.2188,307.4191,45.6389,142.0335,0.00089912,0.00014048,0.0,0 STARLINK-4049,1 52840U 22062L   22265.91667824  .00014048  00000-0  89912-3 0  9990,2 52840  53.2188 307.4191 0001877  45.6389 142.0335 15.08832684  1308,6917.903,95.438,541.066,538.469,0.0
52840.0,STARLINK-4049,PAYLOAD,2022-09-23 06:00:00,15.08836645,0.000197,53.2178,305.9151,37.5455,161.6987,6.2939e-06,-1.88e-06,0.0,0 STARLINK-4049,1 52840U 22062L   22266.25001157 -.00000188  00000-0  62939-5 0  9992,2 52840  53.2178 305.9151 0001970  37.5455 161.6987 15.08836645 15546,6917.891,95.438,541.118,538.393,0.0
52840.0,STARLINK-4049,PAYLOAD,2022-09-23 14:00:01,15.08805088,0.000214,53.2183,304.4283,44.5071,166.3467,0.002942,0.00046801,0.0,0 STARLINK-4049,1 52840U 22062L   22266.58334491  .00046801  00000-0  29420-2 0  9994,2 52840  53.2183 304.4283 0002140  44.5071 166.3467 15.08805088  1305,6917.986999999999,95.44,541.3330000000002,538.372,0.0
52840.0,STARLINK-4049,PAYLOAD,2022-09-23 22:00:00,15.08814513,0.0001964,53.2181,302.9303,49.1814,173.2532,0.0021972,0.00034829,0.0,0 STARLINK-4049,1 52840U 22062L   22266.91667824  .00034829  00000-0  21972-2 0  9991,2 52840  53.2181 302.9303 0001964  49.1814 173.2532 15.08814513  1301,6917.958000000001,95.439,541.182,538.465,0.0
52840.0,STARLINK-4049,PAYLOAD,2022-09-24 14:00:01,15.08834263,0.0002144,53.2174,299.9394,45.75,199.9293,0.0020364999999999,0.00032267,0.0,0 STARLINK-4049,1 52840U 22062L   22267.58335648  .00032267  00000-0  20365-2 0  9990,2 52840  53.2174 299.9394 0002144  45.7500 199.9293 15.08834263  1306,6917.898,95.438,541.246,538.28,0.0
52840.0,STARLINK-4049,PAYLOAD,2022-09-24 22:00:00,15.08826986,0.0001950999999999,53.2173,298.4413,49.5219,207.7067,0.00084238,0.00013139,0.0,0 STARLINK-4049,1 52840U 22062L   22267.91667824  .00013139  00000-0  84238-3 0  9998,2 52840  53.2173 298.4413 0001951  49.5219 207.7067 15.08826986  1305,6917.92,95.438,541.135,538.435,0.0
52840.0,STARLINK-4049,PAYLOAD,2022-09-25 06:00:00,15.08848806,0.0002025,53.2173,296.9457,49.2645,219.5465,-0.0011661,-0.00018804,0.0,0 STARLINK-4049,1 52840U 22062L   22268.25001157 -.00018804  00000-0 -11661-2 0  9992,2 52840  53.2173 296.9457 0002025  49.2645 219.5465 15.08848806 15841,6917.853,95.437,541.119,538.318,0.0
52840.0,STARLINK-4049,PAYLOAD,2022-09-25 14:00:01,15.08858498,0.0002158,53.217,295.4472,45.2747,235.1306,-0.0024666,-0.00039351,0.0,0 STARLINK-4049,1 52840U 22062L   22268.58334491 -.00039351  00000-0 -24666-2 0  9997,2 52840  53.2170 295.4472 0002158  45.2747 235.1306 15.08858498  1307,6917.824000000001,95.436,541.182,538.196,0.0
52840.0,STARLINK-4049,PAYLOAD,2022-09-26 00:00:00,15.08803736,0.0001913,53.2167,293.576,50.16,334.7528,0.0026021,0.00041327,0.0,0 STARLINK-4049,1 52840U 22062L   22269.00001157  .00041327  00000-0  26021-2 0  9996,2 52840  53.2167 293.5760 0001913  50.1600 334.7528 15.08803736  1300,6917.991,95.44,541.18,538.533,0.0
52840.0,STARLINK-4049,PAYLOAD,2022-09-26 10:00:00,15.08817695,0.0002148,53.2169,291.7091,44.9308,84.4494,0.0010925999999999,0.00017133,0.0,0 STARLINK-4049,1 52840U 22062L   22269.41667824  .00017133  00000-0  10926-2 0  9995,2 52840  53.2169 291.7091 0002148  44.9308  84.4494 15.08817695 16021,6917.949000000001,95.439,541.3,538.328,0.0
52840.0,STARLINK-4049,PAYLOAD,2022-09-26 14:00:01,15.0882407,0.0002138,53.2167,290.9607,42.8049,272.3605,0.0012074,0.00018972,0.0,0 STARLINK-4049,1 52840U 22062L   22269.58334491  .00018972  00000-0  12074-2 0  9992,2 52840  53.2167 290.9607 0002138  42.8049 272.3605 15.08824070  1303,6917.929,95.439,541.273,538.315,0.0
52840.0,STARLINK-4049,PAYLOAD,2022-09-27 00:00:00,15.08821544,0.0002028,53.2169,289.0882,49.6101,10.0425,0.0027515,0.00043753,0.0,0 STARLINK-4049,1 52840U 22062L   22270.00001157  .00043753  00000-0  27515-2 0  9992,2 52840  53.2169 289.0882 0002028  49.6101  10.0425 15.08821544  1301,6917.937,95.439,541.205,538.399,0.0
52840.0,STARLINK-4049,PAYLOAD,2022-09-27 14:00:01,15.0886152,0.0002206,53.217,286.4711,43.2009,306.7452,-0.00056027,-9.2e-05,0.0,0 STARLINK-4049,1 52840U 22062L   22270.58334491 -.00009200  00000-0 -56027-3 0  9997,2 52840  53.2170 286.4711 0002206  43.2009 306.7452 15.08861520 16196,6917.815,95.436,541.206,538.154,0.0
52840.0,STARLINK-4049,PAYLOAD,2022-09-27 22:00:01,15.08820568,0.000202,53.2173,284.9728,48.0253,313.6144,0.0030021,0.0004779,0.0,0 STARLINK-4049,1 52840U 22062L   22270.91668981  .00047790  00000-0  30021-2 0  9997,2 52840  53.2173 284.9728 0002020  48.0253 313.6144 15.08820568  1307,6917.94,95.439,541.202,538.4069999999998,0.0
52840.0,STARLINK-4049,PAYLOAD,2022-09-28 14:00:01,15.08874528,0.0002188,53.2173,281.9813,41.5644,343.2127,-0.0026499,-0.00042256,0.0,0 STARLINK-4049,1 52840U 22062L   22271.58334491 -.00042256  00000-0 -26499-2 0  9995,2 52840  53.2173 281.9813 0002188  41.5644 343.2127 15.08874528  1301,6917.775,95.435,541.153,538.126,0.0
52840.0,STARLINK-4049,PAYLOAD,2022-09-28 22:00:00,15.08807546,0.0001969,53.2179,280.4834,46.3763,349.9898,0.003346,0.0005332,0.0,0 STARLINK-4049,1 52840U 22062L   22271.91667824  .00053320  00000-0  33460-2 0  9999,2 52840  53.2179 280.4834 0001969  46.3763 349.9898 15.08807546  1309,6917.98,95.44,541.207,538.482,0.0
52840.0,STARLINK-4049,PAYLOAD,2022-09-29 14:00:01,15.08822048,0.0002099,53.218,277.4921,39.9626,19.5687,-9.1933e-05,-1.75e-05,0.0,0 STARLINK-4049,1 52840U 22062L   22272.58334491 -.00001750  00000-0 -91933-4 0  9997,2 52840  53.2180 277.4921 0002099  39.9626  19.5687 15.08822048 16491,6917.935,95.439,541.252,538.3480000000002,0.0
52840.0,STARLINK-4049,PAYLOAD,2022-09-29 22:00:00,15.08801742,0.0001904,53.2182,275.9943,45.8897,25.2216,0.0033079,0.00052696,0.0,0 STARLINK-4049,1 52840U 22062L   22272.91667824  .00052696  00000-0  33079-2 0  9991,2 52840  53.2182 275.9943 0001904  45.8897  25.2216 15.08801742  1304,6917.996999999999,95.44,541.18,538.545,0.0
